<?xml version="1.0" encoding="UTF-8"?>
<ndm xmlns:xsi="http://www.w3.org/2001/XMLSchema-instance" xsi:noNamespaceSchemaLocation="https://sanaregistry.org/r/ndmxml_unqualified/ndmxml-2.0.0-master-2.0.xsd">
<omm id="CCSDS_OMM_VERS" version="2.0">
<header><CREATION_DATE/><ORIGINATOR/></header><body><segment><metadata><OBJECT_NAME>KUIPER-00027</OBJECT_NAME><OBJECT_ID>2025-088S</OBJECT_ID><CENTER_NAME>EARTH</CENTER_NAME><REF_FRAME>TEME</REF_FRAME><TIME_SYSTEM>UTC</TIME_SYSTEM><MEAN_ELEMENT_THEORY>SGP4</MEAN_ELEMENT_THEORY></metadata><data><meanElements><EPOCH>2025-12-01T06:17:05.389152</EPOCH><MEAN_MOTION>14.79832460</MEAN_MOTION><ECCENTRICITY>.00048688</ECCENTRICITY><INCLINATION>51.8996</INCLINATION><RA_OF_ASC_NODE>170.7449</RA_OF_ASC_NODE><ARG_OF_PERICENTER>182.2012</ARG_OF_PERICENTER><MEAN_ANOMALY>177.8930</MEAN_ANOMALY></meanElements><tleParameters><EPHEMERIS_TYPE>0</EPHEMERIS_TYPE><CLASSIFICATION_TYPE>U</CLASSIFICATION_TYPE><NORAD_CAT_ID>63740</NORAD_CAT_ID><ELEMENT_SET_NO>999</ELEMENT_SET_NO><REV_AT_EPOCH>3304</REV_AT_EPOCH><BSTAR>.25488263E-3</BSTAR><MEAN_MOTION_DOT>.1717E-4</MEAN_MOTION_DOT><MEAN_MOTION_DDOT>0</MEAN_MOTION_DDOT></tleParameters></data></segment></body></omm>
<omm id="CCSDS_OMM_VERS" version="2.0">
<header><CREATION_DATE/><ORIGINATOR/></header><body><segment><metadata><OBJECT_NAME>KUIPER-00028</OBJECT_NAME><OBJECT_ID>2025-088T</OBJECT_ID><CENTER_NAME>EARTH</CENTER_NAME><REF_FRAME>TEME</REF_FRAME><TIME_SYSTEM>UTC</TIME_SYSTEM><MEAN_ELEMENT_THEORY>SGP4</MEAN_ELEMENT_THEORY></metadata><data><meanElements><EPOCH>2025-12-01T06:46:14.413728</EPOCH><MEAN_MOTION>14.79594921</MEAN_MOTION><ECCENTRICITY>.00040011</ECCENTRICITY><INCLINATION>51.8987</INCLINATION><RA_OF_ASC_NODE>168.6632</RA_OF_ASC_NODE><ARG_OF_PERICENTER>201.9861</ARG_OF_PERICENTER><MEAN_ANOMALY>158.0930</MEAN_ANOMALY></meanElements><tleParameters><EPHEMERIS_TYPE>0</EPHEMERIS_TYPE><CLASSIFICATION_TYPE>U</CLASSIFICATION_TYPE><NORAD_CAT_ID>63741</NORAD_CAT_ID><ELEMENT_SET_NO>999</ELEMENT_SET_NO><REV_AT_EPOCH>3348</REV_AT_EPOCH><BSTAR>.28461576E-3</BSTAR><MEAN_MOTION_DOT>.1932E-4</MEAN_MOTION_DOT><MEAN_MOTION_DDOT>0</MEAN_MOTION_DDOT></tleParameters></data></segment></body></omm>
<omm id="CCSDS_OMM_VERS" version="2.0">
<header><CREATION_DATE/><ORIGINATOR/></header><body><segment><metadata><OBJECT_NAME>KUIPER-00029</OBJECT_NAME><OBJECT_ID>2025-088U</OBJECT_ID><CENTER_NAME>EARTH</CENTER_NAME><REF_FRAME>TEME</REF_FRAME><TIME_SYSTEM>UTC</TIME_SYSTEM><MEAN_ELEMENT_THEORY>SGP4</MEAN_ELEMENT_THEORY></metadata><data><meanElements><EPOCH>2025-11-30T20:07:39.012672</EPOCH><MEAN_MOTION>14.79978196</MEAN_MOTION><ECCENTRICITY>.00098216</ECCENTRICITY><INCLINATION>51.9017</INCLINATION><RA_OF_ASC_NODE>168.4322</RA_OF_ASC_NODE><ARG_OF_PERICENTER>152.9112</ARG_OF_PERICENTER><MEAN_ANOMALY>207.2365</MEAN_ANOMALY></meanElements><tleParameters><EPHEMERIS_TYPE>0</EPHEMERIS_TYPE><CLASSIFICATION_TYPE>U</CLASSIFICATION_TYPE><NORAD_CAT_ID>63742</NORAD_CAT_ID><ELEMENT_SET_NO>999</ELEMENT_SET_NO><REV_AT_EPOCH>3297</REV_AT_EPOCH><BSTAR>-.39389011E-2</BSTAR><MEAN_MOTION_DOT>-.30175E-3</MEAN_MOTION_DOT><MEAN_MOTION_DDOT>0</MEAN_MOTION_DDOT></tleParameters></data></segment></body></omm>
<omm id="CCSDS_OMM_VERS" version="2.0">
<header><CREATION_DATE/><ORIGINATOR/></header><body><segment><metadata><OBJECT_NAME>KUIPER-00030</OBJECT_NAME><OBJECT_ID>2025-088V</OBJECT_ID><CENTER_NAME>EARTH</CENTER_NAME><REF_FRAME>TEME</REF_FRAME><TIME_SYSTEM>UTC</TIME_SYSTEM><MEAN_ELEMENT_THEORY>SGP4</MEAN_ELEMENT_THEORY></metadata><data><meanElements><EPOCH>2025-11-30T23:35:35.529504</EPOCH><MEAN_MOTION>14.79923591</MEAN_MOTION><ECCENTRICITY>.00163156</ECCENTRICITY><INCLINATION>51.8990</INCLINATION><RA_OF_ASC_NODE>187.0184</RA_OF_ASC_NODE><ARG_OF_PERICENTER>100.5512</ARG_OF_PERICENTER><MEAN_ANOMALY>259.7289</MEAN_ANOMALY></meanElements><tleParameters><EPHEMERIS_TYPE>0</EPHEMERIS_TYPE><CLASSIFICATION_TYPE>U</CLASSIFICATION_TYPE><NORAD_CAT_ID>63743</NORAD_CAT_ID><ELEMENT_SET_NO>999</ELEMENT_SET_NO><REV_AT_EPOCH>3301</REV_AT_EPOCH><BSTAR>.24637056E-3</BSTAR><MEAN_MOTION_DOT>.1657E-4</MEAN_MOTION_DOT><MEAN_MOTION_DDOT>0</MEAN_MOTION_DDOT></tleParameters></data></segment></body></omm>
<omm id="CCSDS_OMM_VERS" version="2.0">
<header><CREATION_DATE/><ORIGINATOR/></header><body><segment><metadata><OBJECT_NAME>KUIPER-00031</OBJECT_NAME><OBJECT_ID>2025-088W</OBJECT_ID><CENTER_NAME>EARTH</CENTER_NAME><REF_FRAME>TEME</REF_FRAME><TIME_SYSTEM>UTC</TIME_SYSTEM><MEAN_ELEMENT_THEORY>SGP4</MEAN_ELEMENT_THEORY></metadata><data><meanElements><EPOCH>2025-12-01T06:25:18.362496</EPOCH><MEAN_MOTION>14.79970702</MEAN_MOTION><ECCENTRICITY>.00055061</ECCENTRICITY><INCLINATION>51.8994</INCLINATION><RA_OF_ASC_NODE>171.8305</RA_OF_ASC_NODE><ARG_OF_PERICENTER>140.1880</ARG_OF_PERICENTER><MEAN_ANOMALY>219.9487</MEAN_ANOMALY></meanElements><tleParameters><EPHEMERIS_TYPE>0</EPHEMERIS_TYPE><CLASSIFICATION_TYPE>U</CLASSIFICATION_TYPE><NORAD_CAT_ID>63744</NORAD_CAT_ID><ELEMENT_SET_NO>999</ELEMENT_SET_NO><REV_AT_EPOCH>3296</REV_AT_EPOCH><BSTAR>.17012846E-3</BSTAR><MEAN_MOTION_DOT>.1076E-4</MEAN_MOTION_DOT><MEAN_MOTION_DDOT>0</MEAN_MOTION_DDOT></tleParameters></data></segment></body></omm>
<omm id="CCSDS_OMM_VERS" version="2.0">
<header><CREATION_DATE/><ORIGINATOR/></header><body><segment><metadata><OBJECT_NAME>KUIPER-00032</OBJECT_NAME><OBJECT_ID>2025-088X</OBJECT_ID><CENTER_NAME>EARTH</CENTER_NAME><REF_FRAME>TEME</REF_FRAME><TIME_SYSTEM>UTC</TIME_SYSTEM><MEAN_ELEMENT_THEORY>SGP4</MEAN_ELEMENT_THEORY></metadata><data><meanElements><EPOCH>2025-11-30T20:10:25.088160</EPOCH><MEAN_MOTION>15.33090607</MEAN_MOTION><ECCENTRICITY>.00052479</ECCENTRICITY><INCLINATION>51.8710</INCLINATION><RA_OF_ASC_NODE>140.5374</RA_OF_ASC_NODE><ARG_OF_PERICENTER>139.7060</ARG_OF_PERICENTER><MEAN_ANOMALY>220.4315</MEAN_ANOMALY></meanElements><tleParameters><EPHEMERIS_TYPE>0</EPHEMERIS_TYPE><CLASSIFICATION_TYPE>U</CLASSIFICATION_TYPE><NORAD_CAT_ID>63745</NORAD_CAT_ID><ELEMENT_SET_NO>999</ELEMENT_SET_NO><REV_AT_EPOCH>3436</REV_AT_EPOCH><BSTAR>.4494748E-3</BSTAR><MEAN_MOTION_DOT>.14242E-3</MEAN_MOTION_DOT><MEAN_MOTION_DDOT>0</MEAN_MOTION_DDOT></tleParameters></data></segment></body></omm>
<omm id="CCSDS_OMM_VERS" version="2.0">
<header><CREATION_DATE/><ORIGINATOR/></header><body><segment><metadata><OBJECT_NAME>KUIPER-00033</OBJECT_NAME><OBJECT_ID>2025-088Y</OBJECT_ID><CENTER_NAME>EARTH</CENTER_NAME><REF_FRAME>TEME</REF_FRAME><TIME_SYSTEM>UTC</TIME_SYSTEM><MEAN_ELEMENT_THEORY>SGP4</MEAN_ELEMENT_THEORY></metadata><data><meanElements><EPOCH>2025-12-01T00:47:08.789568</EPOCH><MEAN_MOTION>14.79968690</MEAN_MOTION><ECCENTRICITY>.00037422</ECCENTRICITY><INCLINATION>51.8990</INCLINATION><RA_OF_ASC_NODE>202.8561</RA_OF_ASC_NODE><ARG_OF_PERICENTER>187.5915</ARG_OF_PERICENTER><MEAN_ANOMALY>172.4992</MEAN_ANOMALY></meanElements><tleParameters><EPHEMERIS_TYPE>0</EPHEMERIS_TYPE><CLASSIFICATION_TYPE>U</CLASSIFICATION_TYPE><NORAD_CAT_ID>63746</NORAD_CAT_ID><ELEMENT_SET_NO>999</ELEMENT_SET_NO><REV_AT_EPOCH>3299</REV_AT_EPOCH><BSTAR>.44341545E-3</BSTAR><MEAN_MOTION_DOT>.3163E-4</MEAN_MOTION_DOT><MEAN_MOTION_DDOT>0</MEAN_MOTION_DDOT></tleParameters></data></segment></body></omm>
<omm id="CCSDS_OMM_VERS" version="2.0">
<header><CREATION_DATE/><ORIGINATOR/></header><body><segment><metadata><OBJECT_NAME>KUIPER-00034</OBJECT_NAME><OBJECT_ID>2025-088Z</OBJECT_ID><CENTER_NAME>EARTH</CENTER_NAME><REF_FRAME>TEME</REF_FRAME><TIME_SYSTEM>UTC</TIME_SYSTEM><MEAN_ELEMENT_THEORY>SGP4</MEAN_ELEMENT_THEORY></metadata><data><meanElements><EPOCH>2025-12-01T08:00:08.000352</EPOCH><MEAN_MOTION>14.79918048</MEAN_MOTION><ECCENTRICITY>.0002851</ECCENTRICITY><INCLINATION>51.8994</INCLINATION><RA_OF_ASC_NODE>164.0408</RA_OF_ASC_NODE><ARG_OF_PERICENTER>131.1429</ARG_OF_PERICENTER><MEAN_ANOMALY>175.9374</MEAN_ANOMALY></meanElements><tleParameters><EPHEMERIS_TYPE>0</EPHEMERIS_TYPE><CLASSIFICATION_TYPE>U</CLASSIFICATION_TYPE><NORAD_CAT_ID>63747</NORAD_CAT_ID><ELEMENT_SET_NO>999</ELEMENT_SET_NO><REV_AT_EPOCH>571</REV_AT_EPOCH><BSTAR>.30689927E-2</BSTAR><MEAN_MOTION_DOT>.23248E-3</MEAN_MOTION_DOT><MEAN_MOTION_DDOT>0</MEAN_MOTION_DDOT></tleParameters></data></segment></body></omm>

</ndm>
